[{"OBJECT_NAME":"LAPAN-A3","OBJECT_ID":"2016-040E","EPOCH":"2026-03-09T23:01:57.724896","MEAN_MOTION":15.3238951,"ECCENTRICITY":0.00109839,"INCLINATION":97.1488,"RA_OF_ASC_NODE":68.4254,"ARG_OF_PERICENTER":22.062,"MEAN_ANOMALY":338.1093,"EPHEMERIS_TYPE":0,"CLASSIFICATION_TYPE":"U","NORAD_CAT_ID":41603,"ELEMENT_SET_NO":999,"REV_AT_EPOCH":53961,"BSTAR":0.00017567445,"MEAN_MOTION_DOT":5.428e-5,"MEAN_MOTION_DDOT":0},{"OBJECT_NAME":"STARLINK-1404","OBJECT_ID":"2020-035AF","EPOCH":"2026-03-09T22:58:16.298976","MEAN_MOTION":15.3019821,"ECCENTRICITY":0.0001357,"INCLINATION":53.1608,"RA_OF_ASC_NODE":48.4571,"ARG_OF_PERICENTER":89.2984,"MEAN_ANOMALY":270.8172,"EPHEMERIS_TYPE":0,"CLASSIFICATION_TYPE":"U","NORAD_CAT_ID":45686,"ELEMENT_SET_NO":999,"REV_AT_EPOCH":31901,"BSTAR":3.7396603e-5,"MEAN_MOTION_DOT":7.48e-6,"MEAN_MOTION_DDOT":0}]
